0 DELTA 1 DEB
1 09701U 73086FZ  13283.02848172  .00003492  00000-0  12078-1 0  9605
2 09701 102.7310 311.8601 0058828 102.8547 314.5978 12.97701751844914
0 DELTA 1 DEB
1 09701U 73086FZ  13284.35461976  .00003472  00000-0  12012-1 0  9612
2 09701 102.7311 313.4005 0057860 100.4696 029.7045 12.97709062845087
0 DELTA 1 DEB
1 09701U 73086FZ  13285.35674227  .00003238  00000-0  11217-1 0  9625
2 09701 102.7307 314.5647 0057145 098.6140 031.2387 12.97715172845215
0 DELTA 1 DEB
1 09701U 73086FZ  13286.80558679  .00003376  00000-0  11687-1 0  9633
2 09701 102.7306 316.2472 0056744 095.7992 319.8586 12.97722968845404
0 DELTA 1 DEB
1 09701U 73086FZ  13288.03945623  .00004213  00000-0  14537-1 0  9648
2 09701 102.7294 317.6809 0055389 093.4459 324.1621 12.97732557845567
0 DELTA 1 DEB
1 09701U 73086FZ  13289.04155508  .00003883  00000-0  13413-1 0  9650
2 09701 102.7293 318.8444 0055209 091.4786 325.7841 12.97738766845699
0 DELTA 1 DEB
1 09701U 73086FZ  13291.03996402  .00003296  00000-0  11420-1 0  9663
2 09701 102.7281 321.1654 0053697 087.4533 302.1496 12.97751879845954
0 DELTA 1 DEB
1 09701U 73086FZ  13292.36974449  .00003335  00000-0  11554-1 0  9670
2 09701 102.7276 322.7100 0052774 084.6559 034.9207 12.97758847846125
0 DELTA 1 DEB
1 09701U 73086FZ  13294.04630465  .00003584  00000-0  12402-1 0  9684
2 09701 102.7269 324.6564 0051515 081.0854 307.9546 12.97769552846341
0 DELTA 1 DEB
1 09701U 73086FZ  13295.04846308  .00003546  00000-0  12273-1 0  9695
2 09701 102.7269 325.8200 0050723 078.8757 310.2308 12.97775632846470
0 DELTA 1 DEB
1 09701U 73086FZ  13296.05055536  .00003545  00000-0  12271-1 0  9701
2 09701 102.7267 326.9837 0050009 076.6483 312.2367 12.97782146846605
